{
  "type": "FeatureCollection",
  "features": [
    {
      "type": "Feature",
      "properties": {
        "norad_id": 66921,
        "name": "HULIANWANG DIGUI-111",
        "group": "last-30-days",
        "lat": -13.143453330624082,
        "lon": -49.40662928215024,
        "alt_km": 876.1049919267452,
        "timestamp": "2025-12-12T05:47:27.528014+00:00",
        "meta_object_name": "HULIANWANG DIGUI-111",
        "meta_object_id": "2025-285G",
        "meta_epoch": "2025-12-11T23:44:18.125088",
        "meta_mean_motion": 14.05884525,
        "meta_eccentricity": 0.00069743,
        "meta_inclination": 50.0107,
        "meta_ra_of_asc_node": 120.322,
        "meta_arg_of_pericenter": 292.5707,
        "meta_mean_anomaly": 67.446,
        "meta_ephemeris_type": 0,
        "meta_classification_type": "U",
        "meta_norad_cat_id": 66921,
        "meta_element_set_no": 999,
        "meta_rev_at_epoch": 80,
        "meta_bstar": 0.00020872477,
        "meta_mean_motion_dot": 1.91e-06,
        "meta_mean_motion_ddot": 0,
        "tle_line1": "1 66921U 25285G   25345.98909867  .00000191  00000+0  20872-3 0  9993",
        "tle_line2": "2 66921  50.0107 120.3220 0006974 292.5707  67.4460 14.05884525   804"
      },
      "geometry": {
        "type": "Point",
        "coordinates": [
          -49.40662928215024,
          -13.143453330624082
        ]
      }
    },
    {
      "type": "Feature",
      "properties": {
        "norad_id": 66922,
        "name": "HULIANWANG DIGUI-112",
        "group": "last-30-days",
        "lat": -14.954086692952156,
        "lon": -47.76205280155784,
        "alt_km": 876.2270740187059,
        "timestamp": "2025-12-12T05:47:27.528027+00:00",
        "meta_object_name": "HULIANWANG DIGUI-112",
        "meta_object_id": "2025-285H",
        "meta_epoch": "2025-12-11T23:43:38.730144",
        "meta_mean_motion": 14.05999854,
        "meta_eccentricity": 0.00069438,
        "meta_inclination": 50.0082,
        "meta_ra_of_asc_node": 120.3156,
        "meta_arg_of_pericenter": 298.858,
        "meta_mean_anomaly": 61.1628,
        "meta_ephemeris_type": 0,
        "meta_classification_type": "U",
        "meta_norad_cat_id": 66922,
        "meta_element_set_no": 999,
        "meta_rev_at_epoch": 80,
        "meta_bstar": 1.973181e-06,
        "meta_mean_motion_dot": -1.49e-06,
        "meta_mean_motion_ddot": 0,
        "tle_line1": "1 66922U 25285H   25345.98864271 -.00000149  00000+0  19732-5 0  9992",
        "tle_line2": "2 66922  50.0082 120.3156 0006943 298.8580  61.1628 14.05999854   808"
      },
      "geometry": {
        "type": "Point",
        "coordinates": [
          -47.76205280155784,
          -14.954086692952156
        ]
      }
    },
    {
      "type": "Feature",
      "properties": {
        "norad_id": 66923,
        "name": "HULIANWANG DIGUI-113",
        "group": "last-30-days",
        "lat": -15.895048802032477,
        "lon": -46.88951562439781,
        "alt_km": 875.5000821514859,
        "timestamp": "2025-12-12T05:47:27.528037+00:00",
        "meta_object_name": "HULIANWANG DIGUI-113",
        "meta_object_id": "2025-285J",
        "meta_epoch": "2025-12-11T23:43:18.558336",
        "meta_mean_motion": 14.06056022,
        "meta_eccentricity": 0.00053996,
        "meta_inclination": 50.0079,
        "meta_ra_of_asc_node": 120.3153,
        "meta_arg_of_pericenter": 293.7646,
        "meta_mean_anomaly": 66.2693,
        "meta_ephemeris_type": 0,
        "meta_classification_type": "U",
        "meta_norad_cat_id": 66923,
        "meta_element_set_no": 999,
        "meta_rev_at_epoch": 80,
        "meta_bstar": 0.00020025183,
        "meta_mean_motion_dot": 1.78e-06,
        "meta_mean_motion_ddot": 0,
        "tle_line1": "1 66923U 25285J   25345.98840924  .00000178  00000+0  20025-3 0  9998",
        "tle_line2": "2 66923  50.0079 120.3153 0005399 293.7646  66.2693 14.06056022   803"
      },
      "geometry": {
        "type": "Point",
        "coordinates": [
          -46.88951562439781,
          -15.895048802032477
        ]
      }
    },
    {
      "type": "Feature",
      "properties": {
        "norad_id": 66924,
        "name": "CZ-8A R/B",
        "group": "last-30-days",
        "lat": -3.2496204551934245,
        "lon": 115.54370117257344,
        "alt_km": 818.1174238010963,
        "timestamp": "2025-12-12T05:47:27.528047+00:00",
        "meta_object_name": "CZ-8A R/B",
        "meta_object_id": "2025-285K",
        "meta_epoch": "2025-12-11T18:04:29.351136",
        "meta_mean_motion": 14.3050121,
        "meta_eccentricity": 0.01193225,
        "meta_inclination": 50.0063,
        "meta_ra_of_asc_node": 120.3543,
        "meta_arg_of_pericenter": 103.2592,
        "meta_mean_anomaly": 258.1664,
        "meta_ephemeris_type": 0,
        "meta_classification_type": "U",
        "meta_norad_cat_id": 66924,
        "meta_element_set_no": 999,
        "meta_rev_at_epoch": 78,
        "meta_bstar": 9.6804415e-05,
        "meta_mean_motion_dot": 1.07e-06,
        "meta_mean_motion_ddot": 0,
        "tle_line1": "1 66924U 25285K   25345.75311749  .00000107  00000+0  96804-4 0  9993",
        "tle_line2": "2 66924  50.0063 120.3543 0119322 103.2592 258.1664 14.30501210   785"
      },
      "geometry": {
        "type": "Point",
        "coordinates": [
          115.54370117257344,
          -3.2496204551934245
        ]
      }
    },
    {
      "type": "Feature",
      "properties": {
        "norad_id": 66953,
        "name": "HULIANWANG DIGUI-114",
        "group": "last-30-days",
        "lat": -76.55097376554217,
        "lon": -178.81988172483173,
        "alt_km": 1007.6827471976367,
        "timestamp": "2025-12-12T05:47:27.528057+00:00",
        "meta_object_name": "HULIANWANG DIGUI-114",
        "meta_object_id": "2025-287A",
        "meta_epoch": "2025-12-11T05:43:48.442368",
        "meta_mean_motion": 13.68688345,
        "meta_eccentricity": 0.00085506,
        "meta_inclination": 86.4966,
        "meta_ra_of_asc_node": 346.7027,
        "meta_arg_of_pericenter": 209.4482,
        "meta_mean_anomaly": 150.6197,
        "meta_ephemeris_type": 0,
        "meta_classification_type": "U",
        "meta_norad_cat_id": 66953,
        "meta_element_set_no": 999,
        "meta_rev_at_epoch": 32,
        "meta_bstar": 1.3583638e-05,
        "meta_mean_motion_dot": 2.8e-07,
        "meta_mean_motion_ddot": 0,
        "tle_line1": "1 66953U 25287A   25345.23875512  .00000028  00000+0  13584-4 0  9999",
        "tle_line2": "2 66953  86.4966 346.7027 0008550 209.4482 150.6197 13.68688345   322"
      },
      "geometry": {
        "type": "Point",
        "coordinates": [
          -178.81988172483173,
          -76.55097376554217
        ]
      }
    },
    {
      "type": "Feature",
      "properties": {
        "norad_id": 66954,
        "name": "HULIANWANG DIGUI-115",
        "group": "last-30-days",
        "lat": -77.67871247867687,
        "lon": -177.37452567586462,
        "alt_km": 1007.503302389191,
        "timestamp": "2025-12-12T05:47:27.528069+00:00",
        "meta_object_name": "HULIANWANG DIGUI-115",
        "meta_object_id": "2025-287B",
        "meta_epoch": "2025-12-11T23:16:13.382976",
        "meta_mean_motion": 13.6879142,
        "meta_eccentricity": 0.000852,
        "meta_inclination": 86.4972,
        "meta_ra_of_asc_node": 346.4397,
        "meta_arg_of_pericenter": 206.5089,
        "meta_mean_anomaly": 153.5636,
        "meta_ephemeris_type": 0,
        "meta_classification_type": "U",
        "meta_norad_cat_id": 66954,
        "meta_element_set_no": 999,
        "meta_rev_at_epoch": 42,
        "meta_bstar": 1.9300231e-05,
        "meta_mean_motion_dot": 3.3e-07,
        "meta_mean_motion_ddot": 0,
        "tle_line1": "1 66954U 25287B   25345.96959934  .00000033  00000+0  19300-4 0  9999",
        "tle_line2": "2 66954  86.4972 346.4397 0008520 206.5089 153.5636 13.68791420   425"
      },
      "geometry": {
        "type": "Point",
        "coordinates": [
          -177.37452567586462,
          -77.67871247867687
        ]
      }
    },
    {
      "type": "Feature",
      "properties": {
        "norad_id": 66955,
        "name": "HULIANWANG DIGUI-116",
        "group": "last-30-days",
        "lat": -78.95037928825877,
        "lon": -175.35271715143418,
        "alt_km": 1008.001690393131,
        "timestamp": "2025-12-12T05:47:27.528081+00:00",
        "meta_object_name": "HULIANWANG DIGUI-116",
        "meta_object_id": "2025-287C",
        "meta_epoch": "2025-12-11T23:15:52.024896",
        "meta_mean_motion": 13.68903017,
        "meta_eccentricity": 0.00079105,
        "meta_inclination": 86.4907,
        "meta_ra_of_asc_node": 346.4322,
        "meta_arg_of_pericenter": 200.5436,
        "meta_mean_anomaly": 159.5406,
        "meta_ephemeris_type": 0,
        "meta_classification_type": "U",
        "meta_norad_cat_id": 66955,
        "meta_element_set_no": 999,
        "meta_rev_at_epoch": 42,
        "meta_bstar": 1.9446524e-05,
        "meta_mean_motion_dot": 3.3e-07,
        "meta_mean_motion_ddot": 0,
        "tle_line1": "1 66955U 25287C   25345.96935214  .00000033  00000+0  19447-4 0  9997",
        "tle_line2": "2 66955  86.4907 346.4322 0007910 200.5436 159.5406 13.68903017   422"
      },
      "geometry": {
        "type": "Point",
        "coordinates": [
          -175.35271715143418,
          -78.95037928825877
        ]
      }
    }
  ]
}